NIMIQ 4                 
1 33373U 08044A   20312.48144126 -.00000212  00000-0  00000+0 0  9998
2 33373   0.0211 287.9546 0001997 297.7111 272.8084  1.00270298 44301
GALAXY 19 (G-19)        
1 33376U 08045A   20312.46741432 -.00000131  00000-0  00000-0 0  9994
2 33376   0.0224 277.3015 0003548 322.9946 238.1309  1.00272179 44410
ASTRA 1M                
1 33436U 08057A   20312.39354980  .00000128  00000-0  00000-0 0  9999
2 33436   0.0424 100.3408 0003832  91.9049  15.7181  1.00270047 25208
CIEL-2                  
1 33453U 08063A   20312.48656587  .00000066  00000-0  00000+0 0  9993
2 33453   0.0445 102.2714 0003131 125.5495 225.6604  1.00271614 43610
EUTELSAT HOT BIRD 13C   
1 33459U 08065A   20312.39354980  .00000095  00000-0  00000+0 0  9995
2 33459   0.0224 317.2881 0002967 240.5630   3.9043  1.00270735 43717
EUTELSAT 48D            
1 33460U 08065B   20312.17854420  .00000133  00000-0  00000-0 0  9991
2 33460   0.1001  98.1328 0003531 125.3125 295.8189  1.00269575 43422
FENGYUN 2E              
1 33463U 08066A   20312.41966951 -.00000193  00000-0  00000-0 0  9992
2 33463   4.6378  68.0478 0003288 298.6451 278.1578  1.00270266 43557
EXPRESS-AM44            
1 33595U 09007A   20312.25049145 -.00000080  00000-0  00000-0 0  9998
2 33595   0.0086 270.6993 0000184 239.9089 335.5198  1.00272073 43025
NSS-9                   
1 33749U 09008A   20312.48561352  .00000080  00000-0  00000+0 0  9992
2 33749   0.0185 325.3218 0002231 266.2538 173.4960  1.00272669 43039
EUTELSAT 33E            
1 33750U 09008B   20312.38799267  .00000164  00000-0  00000+0 0  9994
2 33750   0.0624  31.5862 0003805 192.4867 355.7759  1.00273897 43061
TELSTAR 11N             
1 34111U 09009A   20312.39489448 -.00000242  00000-0  00000-0 0  9994
2 34111   0.0158 271.4289 0002549 304.0022 296.2754  1.00271494 25718
EUTELSAT 10A            
1 34710U 09016A   20312.40465957  .00000077  00000-0  00000-0 0  9993
2 34710   0.0703  16.0231 0005222 207.1672 339.5633  1.00272421 20728
WGS F2 (USA 204)        
1 34713U 09017A   20312.41443536  .00000055  00000-0  00000+0 0  9992
2 34713   0.0183 249.3266 0000419  45.6947 321.4699  1.00273495 42408
SES-7 (PROTOSTAR 2)     
1 34941U 09027A   20312.42403132 -.00000337  00000-0  00000-0 0  9990
2 34941   0.0831  93.6990 0002057 155.2667  59.0454  1.00271948 42080
MEASAT-3A               
1 35362U 09032A   20312.42062913 -.00000234  00000-0  00000-0 0  9998
2 35362   0.0294 208.4482 0003530  23.2610  58.3317  1.00273371 41713
GOES 14                 
1 35491U 09033A   20312.46314557 -.00000085  00000-0  00000-0 0  9994
2 35491   0.2554 266.2746 0013619 314.3465 248.9673  1.00272361 41623
SIRIUS FM-5             
1 35493U 09034A   20312.47414027 -.00000192  00000-0  00000+0 0  9999
2 35493   0.0197 294.1035 0000110  11.0419 186.5688  1.00271554 41445
TERRESTAR-1             
1 35496U 09035A   20312.45878840 -.00000047  00000-0  00000-0 0  9998
2 35496   2.6078  22.3588 0002749 205.5604 233.3592  1.00272054 41603
ASIASAT 5               
1 35696U 09042A   20312.42246108 -.00000299  00000-0  00000+0 0  9999
2 35696   0.0561 103.3009 0001932  92.3966 103.9802  1.00274485 41132
JCSAT-RA (JCSAT-12)     
1 35755U 09044A   20312.47715079 -.00000023  00000-0  00000-0 0  9996
2 35755   0.0656  99.0932 0001907 130.2402 158.4958  1.00271242 41076
OPTUS D3                
1 35756U 09044B   20312.46891189 -.00000139  00000-0  00000-0 0  9991
2 35756   0.0435  35.0473 0002802 206.0240 130.9038  1.00272325 41021
PALAPA D                
1 35812U 09046A   20311.55771663 -.00000348  00000-0  00000-0 0  9991
2 35812   0.5023  94.5254 0003173 171.7888  93.6881  1.00271839 41128
NIMIQ 5                 
1 35873U 09050A   20312.48635760 -.00000249  00000-0  00000-0 0  9993
2 35873   0.0481  90.9582 0003463 143.5112 275.0915  1.00271654 40826
AMAZONAS 2              
1 35942U 09054A   20312.45479299 -.00000274  00000-0  00000+0 0  9991
2 35942   0.0590 106.0743 0003774  88.5481 315.2835  1.00271311 40642
COMSATBW-1              
1 35943U 09054B   20312.05606985  .00000033  00000-0  00000-0 0  9995
2 35943   0.0904  95.9389 0002831 136.7168 257.2885  1.00272813 40766
NSS-12                  
1 36032U 09058A   20312.41373747  .00000079  00000-0  00000-0 0  9996
2 36032   0.0317  62.1848 0003039 176.2342  14.6191  1.00271532 40384
THOR 6                  
1 36033U 09058B   20312.33042706 -.00000001  00000-0  00000-0 0  9992
2 36033   0.0348 106.2302 0001899 113.4180 305.4990  1.00270493 40483
INTELSAT 14 (IS-14)     
1 36097U 09064A   20312.39341147 -.00000265  00000-0  00000-0 0  9998
2 36097   0.0110 253.8516 0002660 342.2606 267.6100  1.00272041 40155
EUTELSAT 36B            
1 36101U 09065A   20312.38243869  .00000164  00000-0  00000-0 0  9993
2 36101   0.0705  14.5559 0004728 212.2913 353.7895  1.00272772 40197
INTELSAT 15 (IS-15)     
1 36106U 09067A   20312.41940781 -.00000178  00000-0  00000-0 0  9997
2 36106   0.0119 293.9374 0002380 301.5646  47.7482  1.00271255 20764
WGS F3 (USA 211)        
1 36108U 09068A   20312.31586764 -.00000088  00000-0  00000-0 0  9996
2 36108   0.0171 289.9632 0000320 321.7145 257.0526  1.00270592 26074
DIRECTV 12              
1 36131U 09075A   20312.46402486 -.00000095  00000-0  00000-0 0  9992
2 36131   0.0247 150.3298 0000307  98.6014 222.5493  1.00271880 26041
BEIDOU 3                
1 36287U 10001A   20312.43039955 -.00000271  00000-0  00000+0 0  9994
2 36287   1.5751  35.3838 0004421 128.4979 178.6901  1.00270801 39630
RADUGA-1M 2             
1 36358U 10002A   20312.41932059 -.00000176  00000-0  00000+0 0  9993
2 36358   0.0503 258.3872 0002642  16.5379   8.1362  1.00271313 39476
SDO                     
1 36395U 10005A   20311.50840316 -.00000036  00000-0  00000+0 0  9995
2 36395  30.5635 118.9176 0000619  47.3836 321.3415  1.00273057 39499
INTELSAT 16 (IS-16)     
1 36397U 10006A   20312.48471862 -.00000236  00000-0  00000-0 0  9995
2 36397   0.0137 280.4800 0002330 312.8417 272.1598  1.00271501 39303
GOES 15                 
1 36411U 10008A   20312.48750184  .00000060  00000-0  00000-0 0  9995
2 36411   0.2181 100.5968 0001088 297.4756  56.7327  1.00281405 39132
ECHOSTAR 14             
1 36499U 10010A   20312.48373895  .00000008  00000-0  00000-0 0  9996
2 36499   0.0162 267.0834 0002349 330.1094 225.2304  1.00271236 26031
SES-1                   
1 36516U 10016A   20312.46489028 -.00000106  00000-0  00000-0 0  9996
2 36516   0.0135 316.4024 0002598 274.7504 242.3626  1.00271050 38513
ASTRA 3B                
1 36581U 10021A   20312.38799267  .00000146  00000-0  00000+0 0  9996
2 36581   0.0375 332.8492 0003121 256.7902 340.6367  1.00274617 38119
COMSATBW-2              
1 36582U 10021B   20312.39354980  .00000096  00000-0  00000-0 0  9992
2 36582   0.0544  89.6401 0002275 151.0786 321.2124  1.00270970 38429
BADR-5                  
1 36592U 10025A   20312.38799267  .00000153  00000-0  00000+0 0  9990
2 36592   0.0236 148.3858 0004321  42.4781  21.8883  1.00269741 38361
COMS 1                  
1 36744U 10032A   20312.42795693 -.00000336  00000-0  00000-0 0  9996
2 36744   0.0401 100.3250 0001074 142.5694  86.4604  1.00272914 38123
ARABSAT-5A              
1 36745U 10032B   20312.38799267  .00000162  00000-0  00000+0 0  9998
2 36745   0.0700  48.0630 0004407 167.3088   1.8503  1.00271904 38094
ECHOSTAR 15             
1 36792U 10034A   20312.45479257 -.00000273  00000-0  00000-0 0  9999
2 36792   0.0172 269.7521 0002016 299.2905 300.1729  1.00269800 37802
BEIDOU 5                
1 36828U 10036A   20312.55882708 -.00000063  00000-0  10000-3 0  9992
2 36828  54.1638 181.6540 0100238 234.2740 312.2579  1.00271834 37686
NILESAT 201             
1 36830U 10037A   20312.32920576 -.00000049  00000-0  00000-0 0  9997
2 36830   0.0607 136.3974 0004045  80.0332 302.0938  1.00271747 37832
RASCOM-QAF 1R           
1 36831U 10037B   20312.25941694  .00000027  00000-0  00000+0 0  9998
2 36831   0.0081 339.6750 0005718 248.9762 274.5687  1.00272622 37757
AEHF-1 (USA 214)        
1 36868U 10039A   20312.25959141  .00000037  00000-0  00000-0 0  9998
2 36868   3.0844  95.1651 0002251  74.9713 334.2332  1.00271551 33121
CHINASAT 6A (ZX 6A)     
1 37150U 10042A   20312.61586941 -.00000346  00000-0  00000-0 0  9995
2 37150   0.0195 174.1315 0003023  15.8148 204.1431  1.00272845 37374
QZS-1 (MICHIBIKI-1)     
1 37158U 10045A   20311.85773472 -.00000055  00000-0  00000+0 0  9994
2 37158  41.7509 141.5859 0748394 270.4053  84.0156  1.00280299 37174
XM-5                    
1 37185U 10053A   20312.47496375 -.00000197  00000-0  00000+0 0  9993
2 37185   0.0163 278.7686 0001613 126.4084  87.7567  1.00270591 36910
BSAT-3B                 
1 37207U 10056B   20312.42429302 -.00000342  00000-0  00000+0 0  9994
2 37207   0.0351 339.0876 0003516 301.7321  28.9003  1.00272349 36748
BEIDOU 6                
1 37210U 10057A   20312.63778796 -.00000103  00000-0  00000-0 0  9992
2 37210   0.7715  41.4379 0007218 178.1511 217.3885  1.00272170 36750
SKYTERRA 1              
1 37218U 10061A   20312.46966961 -.00000109  00000-0  00000+0 0  9994
2 37218   2.1266   6.5014 0002970 191.7611 276.6611  1.00271530 36692
ZHONGXING-20A           
1 37234U 10064A   20312.42760800 -.00000341  00000-0  00000-0 0  9994
2 37234   1.2010  95.1833 0002092 162.9092  69.3194  1.00277317 36443
HYLAS 1                 
1 37237U 10065A   20312.46885709 -.00000134  00000-0  00000+0 0  9997
2 37237   0.4661  95.0917 0002154 128.9264 148.3166  1.00275230 36475
INTELSAT 17 (IS-17)     
1 37238U 10065B   20312.41556943  .00000006  00000-0  00000-0 0  9996
2 37238   0.0320 135.2051 0002654  94.1326  33.3483  1.00270834 32867
BEIDOU 7                
1 37256U 10068A   20312.35467867 -.00000193  00000-0  00000-0 0  9996
2 37256  51.2463 296.6411 0081783 215.4487 141.8052  1.00266236 36267
